SNAP-3 JIMI             
1 40975U 15058M   26068.63164788  .00007303  00000+0  51665-3 0  9997
2 40975  64.7662 174.4840 0105534  96.5110 264.8035 15.01135599 99270
LILIUM-3                
1 66770U 25276DJ  26068.70479330  .00003348  00000+0  16353-3 0  9991
2 66770  97.4313 144.1145 0001123 186.7966 173.3253 15.18939749 15326
